JASON-2 (OSTM)          
1 33105U 08032A   17345.96063451 -.00000056  00000-0  23371-4 0  9991
2 33105  66.0413 108.3383 0007560 268.4946 212.7116 12.87626961443411
